[{"OBJECT_NAME":"SL-14 R/B","OBJECT_ID":"1986-006B","EPOCH":"2026-04-19T13:44:18.247488","MEAN_MOTION":14.8688341,"ECCENTRICITY":0.0077559,"INCLINATION":82.5286,"RA_OF_ASC_NODE":221.2595,"ARG_OF_PERICENTER":136.4073,"MEAN_ANOMALY":224.3309,"EPHEMERIS_TYPE":0,"CLASSIFICATION_TYPE":"U","NORAD_CAT_ID":16496,"ELEMENT_SET_NO":999,"REV_AT_EPOCH":15528,"BSTAR":5.6686034e-5,"MEAN_MOTION_DOT":5.63e-6,"MEAN_MOTION_DDOT":0},{"OBJECT_NAME":"COSMOS 1743","OBJECT_ID":"1986-034A","EPOCH":"2026-04-19T11:50:40.228224","MEAN_MOTION":15.62109405,"ECCENTRICITY":0.0007331,"INCLINATION":82.5327,"RA_OF_ASC_NODE":30.8924,"ARG_OF_PERICENTER":117.4749,"MEAN_ANOMALY":242.7254,"EPHEMERIS_TYPE":0,"CLASSIFICATION_TYPE":"U","NORAD_CAT_ID":16719,"ELEMENT_SET_NO":999,"REV_AT_EPOCH":18661,"BSTAR":0.00050390482,"MEAN_MOTION_DOT":0.00044361,"MEAN_MOTION_DDOT":0},{"OBJECT_NAME":"SL-14 R/B","OBJECT_ID":"1986-046B","EPOCH":"2026-04-19T13:21:28.072224","MEAN_MOTION":14.85629516,"ECCENTRICITY":0.00246896,"INCLINATION":82.4839,"RA_OF_ASC_NODE":41.5663,"ARG_OF_PERICENTER":92.7097,"MEAN_ANOMALY":267.6946,"EPHEMERIS_TYPE":0,"CLASSIFICATION_TYPE":"U","NORAD_CAT_ID":16792,"ELEMENT_SET_NO":999,"REV_AT_EPOCH":13247,"BSTAR":3.5087313e-5,"MEAN_MOTION_DOT":3.3e-6,"MEAN_MOTION_DDOT":0},{"OBJECT_NAME":"SL-14 R/B","OBJECT_ID":"1986-055B","EPOCH":"2026-04-19T04:54:24.003072","MEAN_MOTION":14.8567795,"ECCENTRICITY":0.00184418,"INCLINATION":82.5178,"RA_OF_ASC_NODE":88.5791,"ARG_OF_PERICENTER":193.3997,"MEAN_ANOMALY":177.1174,"EPHEMERIS_TYPE":0,"CLASSIFICATION_TYPE":"U","NORAD_CAT_ID":16882,"ELEMENT_SET_NO":999,"REV_AT_EPOCH":12538,"BSTAR":3.2409889e-5,"MEAN_MOTION_DOT":3.06e-6,"MEAN_MOTION_DDOT":0},{"OBJECT_NAME":"AJISAI (EGS)","OBJECT_ID":"1986-061A","EPOCH":"2026-04-19T13:59:20.063040","MEAN_MOTION":12.44515846,"ECCENTRICITY":0.00114057,"INCLINATION":50.011,"RA_OF_ASC_NODE":327.6042,"ARG_OF_PERICENTER":32.0199,"MEAN_ANOMALY":357.6249,"EPHEMERIS_TYPE":0,"CLASSIFICATION_TYPE":"U","NORAD_CAT_ID":16908,"ELEMENT_SET_NO":999,"REV_AT_EPOCH":47309,"BSTAR":6.921169e-5,"MEAN_MOTION_DOT":-8.8e-7,"MEAN_MOTION_DDOT":0},{"OBJECT_NAME":"SL-14 R/B","OBJECT_ID":"1987-024B","EPOCH":"2026-04-19T13:48:09.873792","MEAN_MOTION":14.86170563,"ECCENTRICITY":0.00195626,"INCLINATION":82.5289,"RA_OF_ASC_NODE":54.3301,"ARG_OF_PERICENTER":122.6091,"MEAN_ANOMALY":237.7017,"EPHEMERIS_TYPE":0,"CLASSIFICATION_TYPE":"U","NORAD_CAT_ID":17567,"ELEMENT_SET_NO":999,"REV_AT_EPOCH":9420,"BSTAR":3.5013732e-5,"MEAN_MOTION_DOT":3.33e-6,"MEAN_MOTION_DDOT":0},{"OBJECT_NAME":"COSMOS 1833","OBJECT_ID":"1987-027A","EPOCH":"2026-04-19T15:14:54.557088","MEAN_MOTION":14.13036269,"ECCENTRICITY":0.00224929,"INCLINATION":70.9162,"RA_OF_ASC_NODE":239.9492,"ARG_OF_PERICENTER":151.6078,"MEAN_ANOMALY":208.6274,"EPHEMERIS_TYPE":0,"CLASSIFICATION_TYPE":"U","NORAD_CAT_ID":17589,"ELEMENT_SET_NO":999,"REV_AT_EPOCH":1610,"BSTAR":-0.00011929862,"MEAN_MOTION_DOT":-2.71e-6,"MEAN_MOTION_DDOT":0},{"OBJECT_NAME":"SL-16 R/B","OBJECT_ID":"1987-027B","EPOCH":"2026-04-19T13:27:19.683072","MEAN_MOTION":14.17168592,"ECCENTRICITY":0.00032997,"INCLINATION":71.0031,"RA_OF_ASC_NODE":190.3686,"ARG_OF_PERICENTER":39.1376,"MEAN_ANOMALY":320.9986,"EPHEMERIS_TYPE":0,"CLASSIFICATION_TYPE":"U","NORAD_CAT_ID":17590,"ELEMENT_SET_NO":999,"REV_AT_EPOCH":2113,"BSTAR":3.0410897e-5,"MEAN_MOTION_DOT":1.3e-7,"MEAN_MOTION_DDOT":0},{"OBJECT_NAME":"SL-14 R/B","OBJECT_ID":"1987-038B","EPOCH":"2026-04-19T02:52:02.680608","MEAN_MOTION":14.85405619,"ECCENTRICITY":0.00200463,"INCLINATION":82.4992,"RA_OF_ASC_NODE":258.7083,"ARG_OF_PERICENTER":34.8932,"MEAN_ANOMALY":325.3594,"EPHEMERIS_TYPE":0,"CLASSIFICATION_TYPE":"U","NORAD_CAT_ID":17912,"ELEMENT_SET_NO":999,"REV_AT_EPOCH":8523,"BSTAR":3.040755e-5,"MEAN_MOTION_DOT":2.87e-6,"MEAN_MOTION_DDOT":0},{"OBJECT_NAME":"COSMOS 1844","OBJECT_ID":"1987-041A","EPOCH":"2026-04-19T13:20:32.267328","MEAN_MOTION":14.14563442,"ECCENTRICITY":0.00326136,"INCLINATION":70.8991,"RA_OF_ASC_NODE":307.98,"ARG_OF_PERICENTER":317.8296,"MEAN_ANOMALY":42.0317,"EPHEMERIS_TYPE":0,"CLASSIFICATION_TYPE":"U","NORAD_CAT_ID":17973,"ELEMENT_SET_NO":999,"REV_AT_EPOCH":936,"BSTAR":-0.00010749093,"MEAN_MOTION_DOT":-2.56e-6,"MEAN_MOTION_DDOT":0},{"OBJECT_NAME":"SL-14 R/B","OBJECT_ID":"1987-055B","EPOCH":"2026-04-19T13:27:25.291296","MEAN_MOTION":14.8566497,"ECCENTRICITY":0.00193437,"INCLINATION":82.4971,"RA_OF_ASC_NODE":310.5074,"ARG_OF_PERICENTER":236.1801,"MEAN_ANOMALY":123.7574,"EPHEMERIS_TYPE":0,"CLASSIFICATION_TYPE":"U","NORAD_CAT_ID":18153,"ELEMENT_SET_NO":999,"REV_AT_EPOCH":7600,"BSTAR":2.9275913e-5,"MEAN_MOTION_DOT":2.78e-6,"MEAN_MOTION_DDOT":0},{"OBJECT_NAME":"COSMOS 1867","OBJECT_ID":"1987-060A","EPOCH":"2026-04-19T12:28:28.134048","MEAN_MOTION":14.31508999,"ECCENTRICITY":0.00152645,"INCLINATION":65.0108,"RA_OF_ASC_NODE":192.3584,"ARG_OF_PERICENTER":280.7645,"MEAN_ANOMALY":79.172,"EPHEMERIS_TYPE":0,"CLASSIFICATION_TYPE":"U","NORAD_CAT_ID":18187,"ELEMENT_SET_NO":999,"REV_AT_EPOCH":2578,"BSTAR":2.4044901e-5,"MEAN_MOTION_DOT":-3.6e-7,"MEAN_MOTION_DDOT":0},{"OBJECT_NAME":"SL-14 R/B","OBJECT_ID":"1988-001B","EPOCH":"2026-04-19T13:24:47.207808","MEAN_MOTION":14.85566943,"ECCENTRICITY":0.00196261,"INCLINATION":82.5135,"RA_OF_ASC_NODE":156.9311,"ARG_OF_PERICENTER":102.453,"MEAN_ANOMALY":257.8883,"EPHEMERIS_TYPE":0,"CLASSIFICATION_TYPE":"U","NORAD_CAT_ID":18749,"ELEMENT_SET_NO":999,"REV_AT_EPOCH":4809,"BSTAR":2.8794522e-5,"MEAN_MOTION_DOT":2.74e-6,"MEAN_MOTION_DDOT":0},{"OBJECT_NAME":"COSMOS 1933","OBJECT_ID":"1988-020A","EPOCH":"2026-04-19T06:12:59.620032","MEAN_MOTION":15.18349944,"ECCENTRICITY":0.0005288,"INCLINATION":82.5153,"RA_OF_ASC_NODE":210.7658,"ARG_OF_PERICENTER":69.8246,"MEAN_ANOMALY":290.3556,"EPHEMERIS_TYPE":0,"CLASSIFICATION_TYPE":"U","NORAD_CAT_ID":18958,"ELEMENT_SET_NO":999,"REV_AT_EPOCH":5638,"BSTAR":0.0001248,"MEAN_MOTION_DOT":2.594e-5,"MEAN_MOTION_DDOT":0},{"OBJECT_NAME":"SL-3 R/B","OBJECT_ID":"1988-032B","EPOCH":"2026-04-19T13:03:58.739040","MEAN_MOTION":15.20334155,"ECCENTRICITY":0.0027691,"INCLINATION":97.5236,"RA_OF_ASC_NODE":92.6789,"ARG_OF_PERICENTER":91.5636,"MEAN_ANOMALY":268.8771,"EPHEMERIS_TYPE":0,"CLASSIFICATION_TYPE":"U","NORAD_CAT_ID":19046,"ELEMENT_SET_NO":999,"REV_AT_EPOCH":5831,"BSTAR":0.00019003468,"MEAN_MOTION_DOT":4.103e-5,"MEAN_MOTION_DDOT":0},{"OBJECT_NAME":"SL-16 R/B","OBJECT_ID":"1988-039B","EPOCH":"2026-04-19T01:45:48.174336","MEAN_MOTION":14.19622696,"ECCENTRICITY":0.00240755,"INCLINATION":71.0161,"RA_OF_ASC_NODE":343.1582,"ARG_OF_PERICENTER":277.171,"MEAN_ANOMALY":82.6678,"EPHEMERIS_TYPE":0,"CLASSIFICATION_TYPE":"U","NORAD_CAT_ID":19120,"ELEMENT_SET_NO":999,"REV_AT_EPOCH":96411,"BSTAR":-3.3615722e-5,"MEAN_MOTION_DOT":-1.2e-6,"MEAN_MOTION_DDOT":0},{"OBJECT_NAME":"COSMOS 1953","OBJECT_ID":"1988-050A","EPOCH":"2026-04-19T11:12:21.335040","MEAN_MOTION":15.29130381,"ECCENTRICITY":0.00101728,"INCLINATION":82.5044,"RA_OF_ASC_NODE":117.2069,"ARG_OF_PERICENTER":350.9562,"MEAN_ANOMALY":9.1493,"EPHEMERIS_TYPE":0,"CLASSIFICATION_TYPE":"U","NORAD_CAT_ID":19210,"ELEMENT_SET_NO":999,"REV_AT_EPOCH":4401,"BSTAR":0.00024049714,"MEAN_MOTION_DOT":6.84e-5,"MEAN_MOTION_DDOT":0}]
