SL-14 R/B               
1 16496U 86006B   26109.57243342  .00000563  00000+0  56686-4 0  9992
2 16496  82.5286 221.2595 0077559 136.4073 224.3309 14.86883410155289
COSMOS 1743             
1 16719U 86034A   26109.49352116  .00044361  00000+0  50390-3 0  9991
2 16719  82.5327  30.8924 0007331 117.4749 242.7254 15.62109405186617
SL-14 R/B               
1 16792U 86046B   26109.55657491  .00000330  00000+0  35087-4 0  9991
2 16792  82.4839  41.5663 0024689  92.7097 267.6946 14.85629516132473
SL-14 R/B               
1 16882U 86055B   26109.20444448  .00000306  00000+0  32410-4 0  9999
2 16882  82.5178  88.5791 0018441 193.3997 177.1174 14.85677950125384
AJISAI (EGS)            
1 16908U 86061A   26109.58287110 -.00000088  00000+0  69212-4 0  9995
2 16908  50.0110 327.6042 0011405  32.0199 357.6249 12.44515846473091
SL-14 R/B               
1 17567U 87024B   26109.57511428  .00000333  00000+0  35014-4 0  9993
2 17567  82.5289  54.3301 0019562 122.6091 237.7017 14.86170563 94205
COSMOS 1833             
1 17589U 87027A   26109.63535367 -.00000271  00000+0 -11930-3 0  9998
2 17589  70.9162 239.9492 0022492 151.6078 208.6274 14.13036269 16104
SL-16 R/B               
1 17590U 87027B   26109.56064448  .00000013  00000+0  30411-4 0  9997
2 17590  71.0031 190.3686 0003299  39.1376 320.9986 14.17168592 21139
SL-14 R/B               
1 17912U 87038B   26109.11947547  .00000287  00000+0  30408-4 0  9997
2 17912  82.4992 258.7083 0020046  34.8932 325.3594 14.85405619 85232
COSMOS 1844             
1 17973U 87041A   26109.55592902 -.00000256  00000+0 -10749-3 0  9990
2 17973  70.8991 307.9800 0032613 317.8296  42.0317 14.14563442  9360
SL-14 R/B               
1 18153U 87055B   26109.56070939  .00000278  00000+0  29276-4 0  9996
2 18153  82.4971 310.5074 0019343 236.1801 123.7574 14.85664970 76004
COSMOS 1867             
1 18187U 87060A   26109.51977007 -.00000036  00000+0  24045-4 0  9998
2 18187  65.0108 192.3584 0015264 280.7645  79.1720 14.31508999 25786
SL-14 R/B               
1 18749U 88001B   26109.55887972  .00000274  00000+0  28795-4 0  9992
2 18749  82.5135 156.9311 0019626 102.4530 257.8883 14.85566943 48093
COSMOS 1933             
1 18958U 88020A   26109.25902338  .00002594  00000+0  12480-3 0  9996
2 18958  82.5153 210.7658 0005288  69.8246 290.3556 15.18349944 56384
SL-3 R/B                
1 19046U 88032B   26109.54442985  .00004103  00000+0  19003-3 0  9993
2 19046  97.5236  92.6789 0027691  91.5636 268.8771 15.20334155 58315
SL-16 R/B               
1 19120U 88039B   26109.07347424 -.00000120  00000+0 -33616-4 0  9997
2 19120  71.0161 343.1582 0024075 277.1710  82.6678 14.19622696964114
COSMOS 1953             
1 19210U 88050A   26109.46691360  .00006840  00000+0  24050-3 0  9998
2 19210  82.5044 117.2069 0010172 350.9562   9.1493 15.29130381 44013
